H1 CPF 01  gfz 2021 02 26 13  5572 terrasarx 
H2 0702601  6201 31698    2021 02 26 12 59 42 2021 03 03 00 00 42   120 1 1  0 0 0
H9
10 0 59275  32382.000000  0    2914050.686  -1776230.443   5973510.550
10 0 59275  32502.000000  0    3395886.961  -2391206.915   5485734.238
10 0 59275  32622.000000  0    3807945.942  -2972238.982   4901461.426
10 0 59275  32742.000000  0    4143699.528  -3507879.596   4230937.165
10 0 59275  32862.000000  0    4398145.197  -3987369.305   3485935.776
10 0 59275  32982.000000  0    4567884.854  -4400857.030   2679556.281
10 0 59275  33102.000000  0    4651172.283  -4739606.779   1825990.849
10 0 59275  33222.000000  0    4647926.567  -4996184.625    940270.722
10 0 59275  33342.000000  0    4559711.110  -5164622.173     37995.054
10 0 59275  33462.000000  0    4389679.061  -5240551.218   -864951.401
10 0 59275  33582.000000  0    4142487.823  -5221307.365  -1752686.932
10 0 59275  33702.000000  0    3824181.831  -5105998.290  -2609620.764
10 0 59275  33822.000000  0    3442049.095  -4895536.014  -3420733.015
10 0 59275  33942.000000  0    3004454.613  -4592632.420  -4171841.054
10 0 59275  34062.000000  0    2520655.640  -4201759.991  -4849847.302
10 0 59275  34182.000000  0    2000603.221  -3729076.996  -5442963.278
10 0 59275  34302.000000  0    1454736.364  -3182321.752  -5940905.092
10 0 59275  34422.000000  0     893772.921  -2570680.238  -6335061.474
10 0 59275  34542.000000  0     328500.168  -1904627.462  -6618632.488
10 0 59275  34662.000000  0    -230429.982  -1195745.466  -6786736.025
10 0 59275  34782.000000  0    -772696.780   -456522.499  -6836482.375
10 0 59275  34902.000000  0   -1288496.067    299863.194  -6767017.950
10 0 59275  35022.000000  0   -1768713.580   1059772.312  -6579537.640
10 0 59275  35142.000000  0   -2205082.118   1809344.289  -6277266.430
10 0 59275  35262.000000  0   -2590321.336   2534743.732  -5865410.252
10 0 59275  35382.000000  0   -2918259.381   3222411.910  -5351076.507
10 0 59275  35502.000000  0   -3183933.509   3859319.193  -4743163.126
10 0 59275  35622.000000  0   -3383668.949   4433214.298  -4052215.795
10 0 59275  35742.000000  0   -3515132.130   4932864.279  -3290253.538
10 0 59275  35862.000000  0   -3577356.983   5348279.462  -2470567.097
10 0 59275  35982.000000  0   -3570745.791   5670920.706  -1607492.775
10 0 59275  36102.000000  0   -3497042.253   5893883.799   -716162.351
10 0 59275  36222.000000  0   -3359276.009   6012053.089    187766.054
10 0 59275  36342.000000  0   -3161682.599   6022221.457   1088388.577
10 0 59275  36462.000000  0   -2909597.108   5923173.442   1969845.913
10 0 59275  36582.000000  0   -2609323.291   5715726.158   2816613.156
10 0 59275  36702.000000  0   -2267984.369   5402727.737   3613781.038
10 0 59275  36822.000000  0   -1893359.728   4989015.805   4347323.604
10 0 59275  36942.000000  0   -1493711.107   4481336.717   5004347.971
10 0 59275  37062.000000  0   -1077601.663   3888227.907   5573321.605
10 0 59275  37182.000000  0    -653713.443   3219865.448   6044271.778
10 0 59275  37302.000000  0    -230667.654   2487881.430   6408955.411
10 0 59275  37422.000000  0     183149.142   1705156.000   6660996.806
10 0 59275  37542.000000  0     579750.014    885587.246   6795993.877
10 0 59275  37662.000000  0     951700.673     43842.583   6811589.277
10 0 59275  37782.000000  0    1292257.645   -804902.501   6707509.219
10 0 59275  37902.000000  0    1595490.097  -1645237.692   6485568.839
10 0 59275  38022.000000  0    1856383.427  -2461796.927   6149642.842
10 0 59275  38142.000000  0    2070922.897  -3239540.383   5705602.633
10 0 59275  38262.000000  0    2236156.095  -3964034.138   5161218.910
10 0 59275  38382.000000  0    2350232.607  -4621721.567   4526030.945
10 0 59275  38502.000000  0    2412421.624  -5200182.862   3811185.297
10 0 59275  38622.000000  0    2423106.535  -5688378.014   3029243.129
10 0 59275  38742.000000  0    2383754.142  -6076866.505   2193959.786
10 0 59275  38862.000000  0    2296861.213  -6357997.282   1320039.792
10 0 59275  38982.000000  0    2165879.704  -6526064.836    422873.862
10 0 59275  39102.000000  0    1995121.439  -6577430.230   -481738.487
10 0 59275  39222.000000  0    1789644.990  -6510600.854  -1377877.560
10 0 59275  39342.000000  0    1555125.078  -6326263.966  -2249793.385
10 0 59275  39462.000000  0    1297710.877  -6027277.882  -3082189.687
10 0 59275  39582.000000  0    1023877.100  -5618616.685  -3860497.212
10 0 59275  39702.000000  0     740272.325  -5107275.878  -4571128.746
10 0 59275  39822.000000  0     453566.375  -4502140.232  -5201713.235
10 0 59275  39942.000000  0     170301.523  -3813818.082  -5741304.360
10 0 59275  40062.000000  0    -103249.450  -3054445.615  -6180561.365
10 0 59275  40182.000000  0    -361215.329  -2237466.317  -6511899.482
10 0 59275  40302.000000  0    -598246.449  -1377390.207  -6729609.401
10 0 59275  40422.000000  0    -809620.501   -489537.511  -6829945.916
10 0 59275  40542.000000  0    -991332.486    410230.644  -6811185.364
10 0 59275  40662.000000  0   -1140168.121   1305788.783  -6673650.786
10 0 59275  40782.000000  0   -1253759.413   2181028.652  -6419706.880
10 0 59275  40902.000000  0   -1330621.585   3020141.559  -6053724.187
10 0 59275  41022.000000  0   -1370171.505   3807900.203  -5582013.237
10 0 59275  41142.000000  0   -1372726.649   4529933.856  -5012725.955
10 0 59275  41262.000000  0   -1339484.946   5172993.610  -4355726.703
10 0 59275  41382.000000  0   -1272485.592   5725202.328  -3622431.256
10 0 59275  41502.000000  0   -1174550.775   6176282.679  -2825616.338
10 0 59275  41622.000000  0   -1049209.651   6517759.356  -1979203.255
10 0 59275  41742.000000  0    -900605.889   6743130.850  -1098016.435
10 0 59275  41862.000000  0    -733391.027   6848004.082   -197522.502
10 0 59275  41982.000000  0    -552605.313   6830190.535    706445.772
10 0 59275  42102.000000  0    -363549.505   6689758.602   1597976.791
10 0 59275  42222.000000  0    -171651.147   6429037.744   2461370.834
10 0 59275  42342.000000  0      17670.904   6052576.294   3281424.198
10 0 59275  42462.000000  0     199140.640   5567056.910   4043702.369
10 0 59275  42582.000000  0     367754.540   4981172.978   4734799.893
10 0 59275  42702.000000  0     518903.696   4305459.093   5342580.967
10 0 59275  42822.000000  0     648485.010   3552090.474   5856386.482
10 0 59275  42942.000000  0     752999.778   2734656.733   6267218.091
10 0 59275  43062.000000  0     829635.940   1867909.117   6567890.264
10 0 59275  43182.000000  0     876333.918    967489.715   6753150.007
10 0 59275  43302.000000  0     891834.662     49646.715   6819762.464
10 0 59275  43422.000000  0     875709.056   -869057.570   6766563.904
10 0 59275  43542.000000  0     828367.989  -1772045.297   6594482.027
10 0 59275  43662.000000  0     751052.944  -2643021.957   6306521.115
10 0 59275  43782.000000  0     645807.278  -3466271.993   5907713.116
10 0 59275  43902.000000  0     515428.308  -4226944.037   5405032.303
10 0 59275  44022.000000  0     363402.748  -4911320.874   4807279.333
10 0 59275  44142.000000  0     193825.706  -5507073.086   4124934.836
10 0 59275  44262.000000  0      11303.461  -6003491.673   3369980.414
10 0 59275  44382.000000  0    -179157.585  -6391691.123   2555689.803
10 0 59275  44502.000000  0    -372272.728  -6664778.188   1696393.694
10 0 59275  44622.000000  0    -562608.890  -6817982.705    807224.779
10 0 59275  44742.000000  0    -744719.757  -6848749.180    -96156.208
10 0 59275  44862.000000  0    -913282.366  -6756780.992   -997846.431
10 0 59275  44982.000000  0   -1063230.716  -6544038.220  -1881989.926
10 0 59275  45102.000000  0   -1189883.743  -6214691.028  -2733063.551
10 0 59275  45222.000000  0   -1289064.883  -5775030.035  -3536155.307
10 0 59275  45342.000000  0   -1357209.933  -5233334.921  -4277228.819
10 0 59275  45462.000000  0   -1391460.258  -4599705.445  -4943367.266
10 0 59275  45582.000000  0   -1389739.722  -3885861.498  -5522992.693
10 0 59275  45702.000000  0   -1350813.842  -3104917.108  -6006058.919
10 0 59275  45822.000000  0   -1274330.082  -2271132.877  -6384215.715
10 0 59275  45942.000000  0   -1160838.895  -1399651.915  -6650941.609
10 0 59275  46062.000000  0   -1011795.747   -506225.652  -6801645.168
10 0 59275  46182.000000  0    -829544.132    393067.020  -6833735.477
10 0 59275  46302.000000  0    -617278.750   1282102.416  -6746660.887
10 0 59275  46422.000000  0    -378990.788   2144993.477  -6541917.325
10 0 59275  46542.000000  0    -119396.128   2966366.421  -6223026.086
10 0 59275  46662.000000  0     156154.310   3731630.927  -5795481.403
10 0 59275  46782.000000  0     441780.475   4427238.293  -5266664.684
10 0 59275  46902.000000  0     731192.484   5040922.948  -4645728.462
10 0 59275  47022.000000  0    1017822.497   5561925.570  -3943449.471
10 0 59275  47142.000000  0    1294966.771   5981191.107  -3172050.732
10 0 59275  47262.000000  0    1555934.617   6291537.457  -2344995.950
10 0 59275  47382.000000  0    1794201.297   6487791.284  -1476758.003
10 0 59275  47502.000000  0    2003561.418   6566886.161   -582564.719
10 0 59275  47622.000000  0    2178278.451   6527918.911    321873.017
10 0 59275  47742.000000  0    2313226.178   6372162.676   1220644.033
10 0 59275  47862.000000  0    2404018.943   6103036.609   2097924.538
10 0 59275  47982.000000  0    2447127.065   5726032.634   2938264.820
10 0 59275  48102.000000  0    2439975.009   5248601.448   3726868.891
10 0 59275  48222.000000  0    2381019.118   4680000.152   4449861.697
10 0 59275  48342.000000  0    2269802.482   4031103.957   5094538.624
10 0 59275  48462.000000  0    2106985.178   3314186.455   5649587.120
10 0 59275  48582.000000  0    1894352.597   2542680.706   6105280.512
10 0 59275  48702.000000  0    1634800.176   1730921.930   6453644.507
10 0 59275  48822.000000  0    1332294.088    893875.739   6688591.127
99
